ION SCV-004             
1 50993U 22002K   26068.68892644  .00006538  00000+0  23198-3 0  9998
2 50993  97.2961 128.2294 0007216   1.6783 358.4480 15.29369331230088
STARLINK-31186          
1 59030U 24038H   26068.28444458 -.00001465  00000+0 -43729-4 0  9991
2 59030  43.0056  29.5244 0001163 274.0063  86.0656 15.27572946114696
